{
    "links": {
        "self": "http://www.neowsapp.com/rest/v1/neo/3160745?api_key=iIulBulltgU6a56xZRHN4H3l9WmuAYTsLGpBGhQ2"
    },
    "id": "3160745",
    "neo_reference_id": "3160745",
    "name": "(2003 SA85)",
    "designation": "2003 SA85",
    "nasa_jpl_url": "http://ssd.jpl.nasa.gov/sbdb.cgi?sstr=3160745",
    "absolute_magnitude_h": 21.6,
    "estimated_diameter": {
        "kilometers": {
            "estimated_diameter_min": 0.1272198785,
            "estimated_diameter_max": 0.2844722965
        },
        "meters": {
            "estimated_diameter_min": 127.2198785394,
            "estimated_diameter_max": 284.4722965033
        },
        "miles": {
            "estimated_diameter_min": 0.0790507431,
            "estimated_diameter_max": 0.1767628354
        },
        "feet": {
            "estimated_diameter_min": 417.3880663071,
            "estimated_diameter_max": 933.3080892598
        }
    },
    "is_potentially_hazardous_asteroid": false,
    "close_approach_data": [
        {
            "close_approach_date": "2003-09-18",
            "close_approach_date_full": "2003-Sep-18 01:32",
            "epoch_date_close_approach": 1063848720000,
            "relative_velocity": {
                "kilometers_per_second": "8.2212222922",
                "kilometers_per_hour": "29596.4002520422",
                "miles_per_hour": "18390.0521454981"
            },
            "miss_distance": {
                "astronomical": "0.1165498795",
                "lunar": "45.3379031255",
                "kilometers": "17435613.721956665",
                "miles": "10833987.988125377"
            },
            "orbiting_body": "Earth"
        }
    ],
    "orbital_data": {
        "orbit_id": "20",
        "orbit_determination_date": "2017-04-06 09:13:48",
        "first_observation_date": "2003-09-21",
        "last_observation_date": "2003-10-28",
        "data_arc_in_days": 37,
        "observations_used": 139,
        "orbit_uncertainty": "7",
        "minimum_orbit_intersection": ".095583",
        "jupiter_tisserand_invariant": "3.549",
        "epoch_osculation": "2459000.5",
        "eccentricity": ".498032103519677",
        "semi_major_axis": "2.128207651787617",
        "inclination": "5.734764223452614",
        "ascending_node_longitude": "205.1317142754645",
        "orbital_period": "1134.01664034951",
        "perihelion_distance": "1.068291918241158",
        "perihelion_argument": "128.6098298791561",
        "aphelion_distance": "3.188123385334076",
        "perihelion_time": "2458555.341989120509",
        "mean_anomaly": "141.3179297503297",
        "mean_motion": ".317455659106595",
        "equinox": "J2000",
        "orbit_class": {
            "orbit_class_type": "AMO",
            "orbit_class_description": "Near-Earth asteroid orbits similar to that of 1221 Amor",
            "orbit_class_range": "1.017 AU < q (perihelion) < 1.3 AU"
        }
    },
    "is_sentry_object": false
}